{
"type": "FeatureCollection",
"name": "add_coastline_ice_rumples",
"crs": { "type": "name", "properties": { "name": "urn:ogc:def:crs:OGC:1.3:CRS84" } },
"features": [
{ "type": "Feature", "properties": { "surface": "ice rumples" }, "geometry": { "type": "LineString", "coordinates": [ [ -104.885581970754259, -75.139945983897135 ], [ -104.900695800579328, -75.142189026084125 ], [ -104.91502380460139, -75.138397217057431 ], [ -104.901618958483766, -75.136039733372698 ], [ -104.885581970754259, -75.139945983897135 ] ] } },
{ "type": "Feature", "properties": { "surface": "ice rumples" }, "geometry": { "type": "LineString", "coordinates": [ [ -105.570236204227356, -74.825172424018831 ], [ -105.623695373260674, -74.811393737832447 ] ] } },
{ "type": "Feature", "properties": { "surface": "ice rumples" }, "geometry": { "type": "LineString", "coordinates": [ [ -105.653549194957918, -74.812492370752096 ], [ -105.712753294439111, -74.817535400420383 ] ] } },
{ "type": "Feature", "properties": { "surface": "ice rumples" }, "geometry": { "type": "LineString", "coordinates": [ [ -106.039497376816655, -74.873207092432494 ], [ -105.926918030842501, -74.847740173416696 ] ] } },
{ "type": "Feature", "properties": { "surface": "ice rumples" }, "geometry": { "type": "LineString", "coordinates": [ [ -105.926918030842501, -74.847740173416696 ], [ -105.927864073386161, -74.84861755383244 ] ] } },
{ "type": "Feature", "properties": { "surface": "ice rumples" }, "geometry": { "type": "LineString", "coordinates": [ [ -106.039497376816655, -74.873207092432494 ], [ -106.037147521075667, -74.877624511856979 ] ] } },
{ "type": "Feature", "properties": { "surface": "ice rumples" }, "geometry": { "type": "LineString", "coordinates": [ [ -112.318832398529921, -74.858650207273627 ], [ -112.252319335133919, -74.881904602569122 ], [ -112.605743407000816, -74.859970092512398 ], [ -112.519012451617883, -74.841949462889545 ], [ -112.318832398529921, -74.858650207273627 ] ] } },
{ "type": "Feature", "properties": { "surface": "ice rumples" }, "geometry": { "type": "LineString", "coordinates": [ [ -105.570236204227356, -74.825172424018831 ], [ -105.897445678112717, -74.84711456348208 ], [ -105.712753294439111, -74.817535400420383 ] ] } },
{ "type": "Feature", "properties": { "surface": "ice rumples" }, "geometry": { "type": "LineString", "coordinates": [ [ -111.835243223510403, -74.874717712360678 ], [ -111.841720582647412, -74.888664245824955 ], [ -111.897399902382801, -74.879913329653448 ], [ -111.869674682926572, -74.871604919582893 ], [ -111.835243223510403, -74.874717712360678 ] ] } },
{ "type": "Feature", "properties": { "surface": "ice rumples" }, "geometry": { "type": "LineString", "coordinates": [ [ -104.873275758211179, -75.119232177319404 ], [ -104.88813018631501, -75.124778747514114 ], [ -105.082519531083591, -75.122192383105954 ], [ -104.899284361849638, -75.110893249923748 ], [ -104.873275758211179, -75.119232177319404 ] ] } },
{ "type": "Feature", "properties": { "surface": "ice rumples" }, "geometry": { "type": "LineString", "coordinates": [ [ -105.653549194957918, -74.812492370752096 ], [ -105.623695373260674, -74.811393737832447 ] ] } },
{ "type": "Feature", "properties": { "surface": "ice rumples" }, "geometry": { "type": "LineString", "coordinates": [ [ -105.927864073386161, -74.84861755383244 ], [ -106.037147521075667, -74.877624511856979 ] ] } },
{ "type": "Feature", "properties": { "surface": "ice rumples" }, "geometry": { "type": "LineString", "coordinates": [ [ -113.449295043399502, -74.881896972294811 ], [ -113.504837036212678, -74.902748107488179 ], [ -113.549583435869664, -74.866073608357439 ], [ -113.505020139988048, -74.856338501029896 ], [ -113.449295043399502, -74.881896972294811 ] ] } },
{ "type": "Feature", "properties": { "surface": "ice rumples" }, "geometry": { "type": "LineString", "coordinates": [ [ -111.202354431410214, -75.100440978702082 ], [ -111.217910766877807, -75.111999511506838 ], [ -111.276016234948727, -75.115425109423754 ], [ -111.251930236517353, -75.103256225532149 ], [ -111.202354431410214, -75.100440978702082 ] ] } },
{ "type": "Feature", "properties": { "surface": "ice rumples" }, "geometry": { "type": "LineString", "coordinates": [ [ -111.453247072012658, -75.008583068792476 ], [ -111.42269897446117, -75.02189636217561 ], [ -111.732650757277426, -74.994560241763836 ], [ -111.604713441381278, -74.976074218480335 ], [ -111.453247072012658, -75.008583068792476 ] ] } },
{ "type": "Feature", "properties": { "surface": "ice rumples" }, "geometry": { "type": "LineString", "coordinates": [ [ -111.840507506837312, -74.794219970743669 ], [ -111.849853516228464, -74.813713073700455 ], [ -111.938041688339752, -74.816619873325024 ], [ -111.874755858294606, -74.793540955027453 ], [ -111.840507506837312, -74.794219970743669 ] ] } },
{ "type": "Feature", "properties": { "surface": "ice rumples" }, "geometry": { "type": "LineString", "coordinates": [ [ -112.039642332290256, -74.813674926710135 ], [ -112.121391297672758, -74.843566894752044 ], [ -112.227645876113073, -74.841033935800652 ], [ -112.144584656558948, -74.804458618217524 ], [ -112.039642332290256, -74.813674926710135 ] ] } },
{ "type": "Feature", "properties": { "surface": "ice rumples" }, "geometry": { "type": "LineString", "coordinates": [ [ -156.370118943706643, -81.115102705344199 ], [ -160.038265820826467, -81.248412332767302 ], [ -157.737118049668766, -81.252933937669155 ], [ -157.253562584455921, -81.326001740807556 ] ] } },
{ "type": "Feature", "properties": { "surface": "ice rumples" }, "geometry": { "type": "LineString", "coordinates": [ [ 162.526261558754584, -76.798869256919005 ], [ 162.464327249483745, -76.798325462990519 ] ] } },
{ "type": "Feature", "properties": { "surface": "ice rumples" }, "geometry": { "type": "LineString", "coordinates": [ [ -34.926307391607772, -80.568518810905502 ], [ -35.000916437109396, -80.574842779732208 ], [ -35.079883408071041, -80.558445655422645 ], [ -34.98063721715166, -80.554046035223365 ], [ -34.926307391607772, -80.568518810905502 ] ] } },
{ "type": "Feature", "properties": { "surface": "ice rumples" }, "geometry": { "type": "LineString", "coordinates": [ [ -39.9772367724145, -80.982033120931973 ], [ -39.906112066654039, -80.97871440828898 ], [ -40.233808324367828, -81.019300092429859 ], [ -40.214366379847846, -81.01047266078325 ], [ -39.9772367724145, -80.982033120931973 ] ] } },
{ "type": "Feature", "properties": { "surface": "ice rumples" }, "geometry": { "type": "LineString", "coordinates": [ [ -66.694115764928739, -78.44670788430011 ], [ -66.797713252245586, -78.460531472143813 ], [ -66.816731131754096, -78.477252616295047 ], [ -66.676954498304426, -78.459528396900566 ], [ -66.694115764928739, -78.44670788430011 ] ] } },
{ "type": "Feature", "properties": { "surface": "ice rumples" }, "geometry": { "type": "LineString", "coordinates": [ [ -60.000002280024482, -79.720391890939638 ], [ -59.877982469223987, -79.709606846161591 ], [ -59.793268490024388, -79.730098873864165 ], [ -59.930185764610577, -79.740782976942924 ], [ -60.000002280024482, -79.720391890939638 ] ] } },
{ "type": "Feature", "properties": { "surface": "ice rumples" }, "geometry": { "type": "LineString", "coordinates": [ [ -67.353428861863094, -78.340366952478547 ], [ -67.447936638331385, -78.347241152268381 ], [ -67.467062619096822, -78.356273945224501 ], [ -67.420390605618664, -78.364074468964589 ], [ -67.353428861863094, -78.340366952478547 ] ] } },
{ "type": "Feature", "properties": { "surface": "ice rumples" }, "geometry": { "type": "LineString", "coordinates": [ [ -43.567490851442464, -78.885609482352109 ], [ -43.324039283682836, -78.899538655618997 ], [ -43.443111755436007, -79.005342535302361 ] ] } },
{ "type": "Feature", "properties": { "surface": "ice rumples" }, "geometry": { "type": "LineString", "coordinates": [ [ -43.843489609742257, -78.797571453824418 ], [ -43.674658617046425, -78.750595993177384 ], [ -43.587516650136003, -78.830103818401611 ], [ -43.643405702971229, -78.8443010646331 ] ] } },
{ "type": "Feature", "properties": { "surface": "ice rumples" }, "geometry": { "type": "LineString", "coordinates": [ [ -43.245974658918264, -79.280989415918967 ], [ -43.0532632002489, -79.295707112541038 ], [ -42.994427519842887, -79.439624151349136 ] ] } },
{ "type": "Feature", "properties": { "surface": "ice rumples" }, "geometry": { "type": "LineString", "coordinates": [ [ -32.305072461098888, -80.322186041792136 ], [ -32.24041844919519, -80.337096613665054 ], [ -32.177111818499483, -80.325872833354026 ], [ -32.198349020643342, -80.320062449563125 ], [ -32.305072461098888, -80.322186041792136 ] ] } },
{ "type": "Feature", "properties": { "surface": "ice rumples" }, "geometry": { "type": "LineString", "coordinates": [ [ -43.584985888303599, -78.51667100133767 ], [ -43.486642181683493, -78.515137569921109 ], [ -43.446138936386468, -78.521487920482954 ], [ -43.528403589811489, -78.52450300838008 ], [ -43.584985888303599, -78.51667100133767 ] ] } },
{ "type": "Feature", "properties": { "surface": "ice rumples" }, "geometry": { "type": "LineString", "coordinates": [ [ -34.423763526907571, -80.597169259517429 ], [ -34.46741612871854, -80.585954205434987 ], [ -34.520942356359612, -80.59004386759085 ], [ -34.482430235809268, -80.601230664663774 ], [ -34.423763526907571, -80.597169259517429 ] ] } },
{ "type": "Feature", "properties": { "surface": "ice rumples" }, "geometry": { "type": "LineString", "coordinates": [ [ -59.898637251944557, -79.892025152904992 ], [ -59.74296449582372, -79.882688892533992 ], [ -59.637400056684896, -79.908569922399792 ], [ -59.760909189157807, -79.907043703956063 ], [ -59.667448444893026, -79.955315278850364 ], [ -59.823932289706924, -79.942522857367408 ], [ -59.865124044456813, -79.993801872146534 ], [ -59.798518837116205, -80.046205065211623 ], [ -59.954515808198678, -80.070312756366434 ] ] } },
{ "type": "Feature", "properties": { "surface": "ice rumples" }, "geometry": { "type": "LineString", "coordinates": [ [ -50.360442588188207, -78.924860039916496 ], [ -50.643205407031225, -79.002883325351291 ], [ -50.338504647956405, -79.022555355714857 ] ] } },
{ "type": "Feature", "properties": { "surface": "ice rumples" }, "geometry": { "type": "LineString", "coordinates": [ [ -50.19953805818853, -78.760811626570813 ], [ -50.394351144814053, -78.814379794213778 ], [ -50.197460482198466, -78.843408584832162 ] ] } },
{ "type": "Feature", "properties": { "surface": "ice rumples" }, "geometry": { "type": "LineString", "coordinates": [ [ -60.136025107662, -79.759333539986216 ], [ -59.739703542703666, -79.748718494050436 ], [ -59.898986254221327, -79.819329208648881 ], [ -59.667849661534682, -79.844047508294793 ], [ -59.884440133625688, -79.837243785823745 ] ] } },
{ "type": "Feature", "properties": { "surface": "ice rumples" }, "geometry": { "type": "LineString", "coordinates": [ [ -50.440319433264328, -79.602279219532662 ], [ -50.830228741309107, -79.643715759727002 ], [ -50.751420324722737, -79.696945888735399 ] ] } },
{ "type": "Feature", "properties": { "surface": "ice rumples" }, "geometry": { "type": "LineString", "coordinates": [ [ -59.924626206056089, -80.117358172591892 ], [ -59.522099529136625, -80.127488131235381 ], [ -59.289356477470541, -80.220306550117229 ], [ -59.644148607590417, -80.216671574996795 ], [ -59.596351095535397, -80.287503016093453 ], [ -59.804234958414298, -80.346160634575369 ] ] } },
{ "type": "Feature", "properties": { "surface": "ice rumples" }, "geometry": { "type": "LineString", "coordinates": [ [ -54.189212434930248, -82.197025282496725 ], [ -54.193171957628721, -82.196918860733305 ] ] } },
{ "type": "Feature", "properties": { "surface": "ice rumples" }, "geometry": { "type": "LineString", "coordinates": [ [ -69.671288393100355, -79.386416716282497 ], [ -69.48415547599808, -79.413906701026505 ], [ -69.661178688785512, -79.474444056280547 ], [ -69.632344353779175, -79.538771691868334 ], [ -69.808004983130374, -79.534552827282653 ] ] } },
{ "type": "Feature", "properties": { "surface": "ice rumples" }, "geometry": { "type": "LineString", "coordinates": [ [ -50.094083493332953, -78.577525376190877 ], [ -50.287255038952615, -78.598663806073645 ], [ -50.340458020467281, -78.696877368482063 ], [ -50.188669334313694, -78.706754214240519 ] ] } },
{ "type": "Feature", "properties": { "surface": "ice rumples" }, "geometry": { "type": "LineString", "coordinates": [ [ -50.471498321480162, -79.125096562316955 ], [ -50.774681636394526, -79.230299518835807 ], [ -50.718095778831511, -79.30134112219902 ], [ -50.447230409267952, -79.312009903116376 ] ] } },
{ "type": "Feature", "properties": { "surface": "ice rumples" }, "geometry": { "type": "LineString", "coordinates": [ [ -53.961209952378105, -80.444870644918097 ], [ -54.446745885401157, -80.639206899654198 ], [ -54.445237767170767, -80.748223681478223 ], [ -54.252188371244756, -80.849516006123409 ] ] } },
{ "type": "Feature", "properties": { "surface": "ice rumples" }, "geometry": { "type": "LineString", "coordinates": [ [ -37.246463742843638, -80.803765172218093 ], [ -37.297947831567541, -80.815088500029248 ], [ -37.3501470680837, -80.795045587380926 ], [ -37.297126192811561, -80.790245139819987 ], [ -37.246463742843638, -80.803765172218093 ] ] } },
{ "type": "Feature", "properties": { "surface": "ice rumples" }, "geometry": { "type": "LineString", "coordinates": [ [ -59.934487473806335, -80.665772657638925 ], [ -59.734398031993017, -80.657177346467151 ], [ -60.144287621471385, -80.819070607640128 ] ] } },
{ "type": "Feature", "properties": { "surface": "ice rumples" }, "geometry": { "type": "LineString", "coordinates": [ [ -66.265610763008937, -80.199372730091056 ], [ -66.54860873856201, -80.224376999827825 ] ] } },
{ "type": "Feature", "properties": { "surface": "ice rumples" }, "geometry": { "type": "LineString", "coordinates": [ [ -66.198841526358507, -80.198430133205321 ], [ -65.735467596857802, -80.228527050494435 ], [ -66.206276624021143, -80.271321803089904 ] ] } },
{ "type": "Feature", "properties": { "surface": "ice rumples" }, "geometry": { "type": "LineString", "coordinates": [ [ -70.263641646705153, -79.653036030314368 ], [ -69.885428896184678, -79.634719880001839 ], [ -70.609429003578427, -79.695814840183942 ] ] } },
{ "type": "Feature", "properties": { "surface": "ice rumples" }, "geometry": { "type": "LineString", "coordinates": [ [ -60.345044830482557, -79.698182595400979 ], [ -60.566450994099192, -79.72270783965304 ], [ -60.147365482980817, -79.707006575262923 ], [ -60.05550376786713, -79.661711136392597 ], [ -60.345044830482557, -79.698182595400979 ] ] } },
{ "type": "Feature", "properties": { "surface": "ice rumples" }, "geometry": { "type": "LineString", "coordinates": [ [ -33.502550839936113, -79.351553060387999 ], [ -33.548926139176928, -79.389932594029489 ], [ -33.652700980084276, -79.361636600074306 ], [ -33.447022583506154, -79.332915152013811 ], [ -33.502550839936113, -79.351553060387999 ] ] } },
{ "type": "Feature", "properties": { "surface": "ice rumples" }, "geometry": { "type": "LineString", "coordinates": [ [ -33.975890143381157, -79.304591085244994 ], [ -34.160028825944039, -79.354971756433159 ], [ -34.115256416614777, -79.330015156980139 ], [ -34.492361283841547, -79.24667348008515 ], [ -33.975890143381157, -79.304591085244994 ] ] } },
{ "type": "Feature", "properties": { "surface": "ice rumples" }, "geometry": { "type": "LineString", "coordinates": [ [ -36.323500690621536, -79.176948910143352 ], [ -36.587120560768923, -79.207985576321107 ], [ -36.916870663456336, -79.199714687509697 ], [ -36.612785620982351, -79.301161472243621 ], [ -36.061601182267822, -79.299876974456197 ], [ -36.223168675824162, -79.207968758761226 ], [ -36.151520490120134, -79.173163497704948 ], [ -36.323500690621536, -79.176948910143352 ] ] } },
{ "type": "Feature", "properties": { "surface": "ice rumples" }, "geometry": { "type": "LineString", "coordinates": [ [ -37.319170574336496, -80.739021797870166 ], [ -37.380170656052684, -80.75244992360075 ], [ -37.445104485425951, -80.730585612105301 ], [ -37.364525487354449, -80.727954765476952 ], [ -37.319170574336496, -80.739021797870166 ] ] } },
{ "type": "Feature", "properties": { "surface": "ice rumples" }, "geometry": { "type": "LineString", "coordinates": [ [ -38.385762891508975, -80.810569412518518 ], [ -38.404895289551099, -80.800607079510172 ], [ -38.266292846485833, -80.810565642265061 ], [ -38.313605325046815, -80.822698512783617 ], [ -38.385762891508975, -80.810569412518518 ] ] } },
{ "type": "Feature", "properties": { "surface": "ice rumples" }, "geometry": { "type": "LineString", "coordinates": [ [ -40.264780396473626, -81.053908595835935 ], [ -40.101396596478857, -81.039569079743814 ], [ -40.561362789675769, -81.083710440957006 ], [ -40.494726899090615, -81.068508481569168 ], [ -40.264780396473626, -81.053908595835935 ] ] } },
{ "type": "Feature", "properties": { "surface": "ice rumples" }, "geometry": { "type": "LineString", "coordinates": [ [ -67.282589212048151, -78.391582512052238 ], [ -66.740662793587532, -78.340130796804814 ], [ -66.732434001704036, -78.333293026614228 ], [ -67.132193516984216, -78.305491543556556 ], [ -67.340100853618054, -78.389780901093587 ], [ -67.282589212048151, -78.391582512052238 ] ] } },
{ "type": "Feature", "properties": { "surface": "ice rumples" }, "geometry": { "type": "LineString", "coordinates": [ [ -66.665466061149942, -79.28585528466418 ], [ -66.594329132125353, -79.289084420698288 ], [ -66.581567078936175, -79.294669931204453 ], [ -66.711626568236525, -79.293622292816394 ], [ -66.665466061149942, -79.28585528466418 ] ] } },
{ "type": "Feature", "properties": { "surface": "ice rumples" }, "geometry": { "type": "LineString", "coordinates": [ [ -67.790774587972891, -79.124059432441328 ], [ -68.048577347773062, -79.141040296364508 ], [ -68.158824623519067, -79.160379755809942 ], [ -67.599096233534951, -79.149218452220737 ], [ -67.790774587972891, -79.124059432441328 ] ] } },
{ "type": "Feature", "properties": { "surface": "ice rumples" }, "geometry": { "type": "LineString", "coordinates": [ [ -67.030579010390099, -79.269673968026439 ], [ -67.885122809698487, -79.206581450782707 ], [ -68.254490279024495, -79.295039744528978 ], [ -67.54301385235469, -79.314336101954837 ], [ -68.598768291017549, -79.431859134536822 ], [ -67.528701841721912, -79.512739902928615 ], [ -67.088480109552947, -79.436740061364489 ], [ -67.537883074205951, -79.402074088778434 ], [ -67.030579010390099, -79.269673968026439 ] ] } },
{ "type": "Feature", "properties": { "surface": "ice rumples" }, "geometry": { "type": "LineString", "coordinates": [ [ -65.712715137692825, -79.999530572148103 ], [ -66.386230981543164, -80.065040418284013 ], [ -66.433484417692171, -79.969618563850162 ], [ -67.052634820604212, -79.906292929016715 ], [ -66.897885935333477, -79.787845760846579 ], [ -67.864860932831846, -79.578967237048616 ], [ -65.781114398625476, -79.621679067583713 ], [ -65.678975586778037, -79.648242627126791 ], [ -66.554586710389941, -79.67441729801611 ], [ -65.601479108135052, -79.774526980643074 ], [ -65.648682074543729, -79.814361290744287 ], [ -65.481259189537852, -79.952834207680851 ], [ -65.712715137692825, -79.999530572148103 ] ] } },
{ "type": "Feature", "properties": { "surface": "ice rumples" }, "geometry": { "type": "LineString", "coordinates": [ [ -66.111660546587004, -79.688028138278071 ], [ -66.178215406313242, -79.697889577670836 ], [ -66.223751843635227, -79.694076625985872 ], [ -66.141962636776753, -79.678925766018651 ], [ -66.111660546587004, -79.688028138278071 ] ] } },
{ "type": "Feature", "properties": { "surface": "ice rumples" }, "geometry": { "type": "LineString", "coordinates": [ [ -75.567830298911815, -78.860544819884751 ], [ -75.473950737708037, -78.855368045242088 ], [ -75.52731424217346, -78.811539286613552 ], [ -75.41220810586222, -78.726437345874757 ], [ -75.147913400629804, -78.659517864136092 ], [ -75.537698642494007, -78.717199041811369 ], [ -75.686721413554153, -78.801490191421607 ], [ -75.567830298911815, -78.860544819884751 ] ] } },
{ "type": "Feature", "properties": { "surface": "ice rumples" }, "geometry": { "type": "LineString", "coordinates": [ [ -59.857804438806703, -80.528684804927835 ], [ -59.482010956628955, -80.500150697779048 ], [ -59.877178798545899, -80.588055345373036 ] ] } },
{ "type": "Feature", "properties": { "surface": "ice rumples" }, "geometry": { "type": "LineString", "coordinates": [ [ -34.274656335152436, -79.13043699457927 ], [ -34.248672775338491, -79.145622733831672 ], [ -34.329057946817386, -79.135889528131742 ], [ -34.314590830716234, -79.126867246750606 ], [ -34.274656335152436, -79.13043699457927 ] ] } }
]
}
