{
  "type": "FeatureCollection",
  "_note": "Contextos chilenos = 19 CGT de Aysén (Benado et al. 2020), única lista oficial completa publicada hasta ahora. Polígonos placeholder dentro del bounding box Aysén; reemplazar cuando dispongamos de la cartografía oficial. Contextos antárticos = derivados del marco SCAR EG-GEOCON, también placeholders.",
  "_referencias": [
    "Benado et al. 2020, Aysenología 8:4-19",
    "Mourgues, Schilling & Castro 2012, XIII Congreso Geológico Chileno",
    "SCAR EG-GEOCON Geoconservation Framework"
  ],
  "features": [
    {"type":"Feature","properties":{"id":"cgt-01","numero":"I","nombre":"Complejos metamórficos y basamento del Paleozoico","tipo":"basamento","edad":"Paleozoico tardío","color":"#5b3a8a","region":"chile","descripcion":"Rocas metamórficas polideformadas que conforman el basamento del sector oriental de la región de Aysén. Protolito en contexto de margen pasivo durante el Paleozoico tardío.","unidades":["Complejo Metamórfico Andino Oriental","Complejos metamórficos de los Andes Principales"]},"geometry":{"type":"Polygon","coordinates":[[[-72.0,-49.0],[-71.2,-49.0],[-71.2,-43.5],[-72.0,-43.5],[-72.0,-49.0]]]}},
    {"type":"Feature","properties":{"id":"cgt-02","numero":"II","nombre":"Complejos acrecionarios del Mesozoico","tipo":"basamento","edad":"Triásico Sup. – Jurásico Inf.","color":"#7c5295","region":"chile","descripcion":"Metamorfismo entre Triásico Superior y Jurásico Inferior, en margen activo coetáneo a la fragmentación inicial de Pangea. Basamento de la zona de archipiélagos.","unidades":["Complejo Metamórfico de Chonos"]},"geometry":{"type":"Polygon","coordinates":[[[-75.5,-47.5],[-74.0,-47.5],[-74.0,-43.5],[-75.5,-43.5],[-75.5,-47.5]]]}},
    {"type":"Feature","properties":{"id":"cgt-03","numero":"III","nombre":"Secuencias volcánicas del Jurásico Superior","tipo":"arco volcanico","edad":"Jurásico Superior","color":"#c0392b","region":"chile","descripcion":"Productos volcánicos extensionales coherentes con subducción durante etapas medias-tardías de fragmentación de Gondwana.","unidades":["Formación Ibáñez","Cuerpos hipabisales del Jurásico Superior"]},"geometry":{"type":"Polygon","coordinates":[[[-72.5,-47.0],[-71.5,-47.0],[-71.5,-44.5],[-72.5,-44.5],[-72.5,-47.0]]]}},
    {"type":"Feature","properties":{"id":"cgt-04","numero":"IV","nombre":"Registros de la cuenca Austral","tipo":"cuenca sedimentaria","edad":"Tithoniano – Aptiano","color":"#2980b9","region":"chile","descripcion":"Rocas y fósiles del ciclo trasarco transgresión-regresión marino entre Tithoniano y Aptiano, coetáneo a la ruptura de Gondwana occidental.","unidades":["Grupo Coyhaique","Formación Toqui","Formación Katterfeld","Formación Apeleg"]},"geometry":{"type":"Polygon","coordinates":[[[-72.8,-46.5],[-71.5,-46.5],[-71.5,-44.5],[-72.8,-44.5],[-72.8,-46.5]]]}},
    {"type":"Feature","properties":{"id":"cgt-05","numero":"V","nombre":"Complejos volcánicos del Cretácico","tipo":"arco volcanico","edad":"Cretácico medio-tardío","color":"#cb4335","region":"chile","descripcion":"Volcanismo y subvolcanismo emplazado en posición de retroarco durante el Cretácico medio a tardío, posterior a la ruptura de Gondwana occidental.","unidades":["Complejo Volcánico Baño Nuevo","Tobas Flamencos","Formación Divisadero","Riolita Cerro Pico Rojo","Cuerpos Hipabisales Avellano-Levicán","Vulcanitas Isla Byron","Basaltos Morro Negro","Formación El Toro","Pórfidos Ácidos"]},"geometry":{"type":"Polygon","coordinates":[[[-73.5,-46.0],[-71.8,-46.0],[-71.8,-44.5],[-73.5,-44.5],[-73.5,-46.0]]]}},
    {"type":"Feature","properties":{"id":"cgt-06","numero":"VI","nombre":"Unidades batolíticas y complejos plutónicos del Mesozoico","tipo":"intrusivo","edad":"Jurásico – Cretácico Sup.","color":"#e67e22","region":"chile","descripcion":"Batolito Norpatagónico y Surpatagónico (mesozoicos) y cuerpos intrusivos menores asociados a las etapas tempranas del Ciclo Andino.","unidades":["Batolito Patagónico (mesozoico)","Complejo Plutónico Lago Plomo","Tonalitas Esmeralda y Sobral","Dioritas El Halcón","Granodioritas Ventisquero y Cabeza de León","Granitoides O'Higgins","Complejo Hipabisal Calluqueo","Dioritas Tamango","Granito Nacientes del Río Cisnes","Complejo Plutónico Tranquilo - Del Salto","Pórfidos Granodioríticos Lago Azul"]},"geometry":{"type":"Polygon","coordinates":[[[-74.0,-48.0],[-72.5,-48.0],[-72.5,-44.0],[-74.0,-44.0],[-74.0,-48.0]]]}},
    {"type":"Feature","properties":{"id":"cgt-07","numero":"VII","nombre":"Franjas metalogénicas","tipo":"yacimiento","edad":"Jurásico Sup. – Mioceno","color":"#b9770e","region":"chile","descripcion":"Registro de zonas mineralizadas y/o con alteración hidrotermal asociadas a las 4 franjas metalogénicas presentes en la región.","unidades":["Horizonte mineralizado Fm. Toqui","Hipabisales Riolíticos San Antonio","Cuerpos Hipabisales y Domos Cerro Bayo","Hipabisales Básicos"]},"geometry":{"type":"Polygon","coordinates":[[[-72.8,-46.0],[-71.8,-46.0],[-71.8,-45.0],[-72.8,-45.0],[-72.8,-46.0]]]}},
    {"type":"Feature","properties":{"id":"cgt-08","numero":"VIII","nombre":"Sucesiones sedimentarias continentales del Paleógeno","tipo":"cuenca sedimentaria","edad":"Paleógeno","color":"#5dade2","region":"chile","descripcion":"Registro sedimentario y fósil depositado en ambientes principalmente fluviales, en contexto compresivo durante el Paleógeno.","unidades":["Formación Ligorio Márquez","Formación San José","Secuencia Tres Montes","Puerto Good"]},"geometry":{"type":"Polygon","coordinates":[[[-72.0,-48.0],[-71.2,-48.0],[-71.2,-46.5],[-72.0,-46.5],[-72.0,-48.0]]]}},
    {"type":"Feature","properties":{"id":"cgt-09","numero":"IX","nombre":"Magmatismo paleógeno asociado a extensión","tipo":"arco volcanico","edad":"Paleógeno temprano","color":"#d35400","region":"chile","descripcion":"Productos y cuerpos volcánicos/subvolcánicos extensionales relacionados con la migración del Punto Triple Aluk-Farallón.","unidades":["Basaltos Balmaceda","Basaltos Inferiores Meseta de Chile Chico","Domo Lago Chacabuco","Domos Riodacíticos Cerro Chueco","Basaltos Winchester","Gabro Las Bandurrias"]},"geometry":{"type":"Polygon","coordinates":[[[-72.5,-46.5],[-71.5,-46.5],[-71.5,-45.5],[-72.5,-45.5],[-72.5,-46.5]]]}},
    {"type":"Feature","properties":{"id":"cgt-10","numero":"X","nombre":"Registros de la cuenca de Cosmelli","tipo":"cuenca sedimentaria","edad":"Oligoceno Sup. – Mioceno Inf.","color":"#48c9b0","region":"chile","descripcion":"Registro sedimentario de transgresión marina de afinidad atlántica entre Oligoceno superior y Mioceno inferior, restringido a la ribera suroccidental del lago General Carrera.","unidades":["Formación Guadal"]},"geometry":{"type":"Polygon","coordinates":[[[-72.3,-46.8],[-71.7,-46.8],[-71.7,-46.4],[-72.3,-46.4],[-72.3,-46.8]]]}},
    {"type":"Feature","properties":{"id":"cgt-11","numero":"XI","nombre":"Sucesiones sedimentarias continentales del Neógeno","tipo":"cuenca sedimentaria","edad":"Neógeno","color":"#27ae60","region":"chile","descripcion":"Registro fluvial neógeno desarrollado durante el alzamiento de los Andes Patagónicos.","unidades":["Formación Santa Cruz","Formación Río Frías","Formación Oscuro","Formación Galera"]},"geometry":{"type":"Polygon","coordinates":[[[-72.0,-46.0],[-71.2,-46.0],[-71.2,-44.5],[-72.0,-44.5],[-72.0,-46.0]]]}},
    {"type":"Feature","properties":{"id":"cgt-12","numero":"XII","nombre":"Registros de la cuenca de Traiguén","tipo":"cuenca sedimentaria","edad":"Oligoceno Sup. – Mioceno","color":"#1abc9c","region":"chile","descripcion":"Rocas volcánicas, sedimentarias, metamórficas y fósiles depositados en ambiente marino, asociados al sistema de falla Liquiñe-Ofqui.","unidades":["Formación Traiguén"]},"geometry":{"type":"Polygon","coordinates":[[[-73.5,-44.5],[-72.5,-44.5],[-72.5,-43.7],[-73.5,-43.7],[-73.5,-44.5]]]}},
    {"type":"Feature","properties":{"id":"cgt-13","numero":"XIII","nombre":"Unidades batolíticas y complejos plutónicos del Cenozoico","tipo":"intrusivo","edad":"Cenozoico","color":"#f39c12","region":"chile","descripcion":"Batolito Norpatagónico y Surpatagónico (cenozoicos) y cuerpos menores asociados a etapas recientes del Ciclo Andino, en parte controlados por el sistema Liquiñe-Ofqui.","unidades":["Batolito Patagónico (cenozoico)","Complejo Plutónico Paso Las Llaves","Monzonita Cuarcífera Avilés","Stock Las Nieves"]},"geometry":{"type":"Polygon","coordinates":[[[-73.5,-47.5],[-72.0,-47.5],[-72.0,-43.7],[-73.5,-43.7],[-73.5,-47.5]]]}},
    {"type":"Feature","properties":{"id":"cgt-14","numero":"XIV","nombre":"Tectónica neógena asociada al Punto Triple de Chile","tipo":"tectonica","edad":"Neógeno","color":"#e74c3c","region":"chile","descripcion":"Registros asociados a la migración hacia el norte del Punto Triple de Chile durante el Neógeno.","unidades":["Basaltos Superiores Meseta Chile Chico","Hipabisal Dacítico nacientes del Chacabuco","Grupo Chaicayán","Ofiolitas península Taitao","Margen de Chile","Basaltos Pico Sur","Basaltos de Murta"]},"geometry":{"type":"Polygon","coordinates":[[[-75.5,-47.0],[-72.0,-47.0],[-72.0,-45.5],[-75.5,-45.5],[-75.5,-47.0]]]}},
    {"type":"Feature","properties":{"id":"cgt-15","numero":"XV","nombre":"Estructuras y neotectónica","tipo":"tectonica","edad":"Cenozoico tardío","color":"#a93226","region":"chile","descripcion":"Estructuras, morfologías y rasgos asociados a la zona de Falla Liquiñe-Ofqui y al tectonismo reciente.","unidades":["Falla Liquiñe-Ofqui"]},"geometry":{"type":"Polygon","coordinates":[[[-73.0,-48.0],[-72.5,-48.0],[-72.5,-43.5],[-73.0,-43.5],[-73.0,-48.0]]]}},
    {"type":"Feature","properties":{"id":"cgt-16","numero":"XVI","nombre":"Volcanismo del Cuaternario","tipo":"arco volcanico","edad":"Cuaternario","color":"#c0392b","region":"chile","descripcion":"Productos y morfologías volcánicas recientes asociadas a la zona de Falla Liquiñe-Ofqui.","unidades":["Volcán Melimoyu","Volcán Mentolat","Volcán Cay","Volcán Maca","Volcán Hudson","Grupo Volcánico Puyuhuapi"]},"geometry":{"type":"Polygon","coordinates":[[[-73.5,-46.5],[-72.5,-46.5],[-72.5,-43.7],[-73.5,-43.7],[-73.5,-46.5]]]}},
    {"type":"Feature","properties":{"id":"cgt-17","numero":"XVII","nombre":"Ambientes y registros glaciales y periglaciales","tipo":"proceso glacial","edad":"Cuaternario","color":"#3498db","region":"chile","descripcion":"Campos de Hielo Norte y Sur, casquetes, morrenas y depósitos asociados; ambientes glaciales y periglaciales activos y heredados.","unidades":["Campo de Hielo Norte","Campo de Hielo Sur","Gravas de la Meseta Boscosa"]},"geometry":{"type":"Polygon","coordinates":[[[-74.5,-49.0],[-72.5,-49.0],[-72.5,-46.0],[-74.5,-46.0],[-74.5,-49.0]]]}},
    {"type":"Feature","properties":{"id":"cgt-18","numero":"XVIII","nombre":"Dinámicas hídricas del Cuaternario","tipo":"proceso fluvial","edad":"Cuaternario","color":"#2ecc71","region":"chile","descripcion":"Depósitos y morfologías de génesis hídrica que han modelado el paisaje cuaternario: ambientes costeros (fiordos, plataformas de abrasión), fluviales y lacustres.","unidades":["Fiordos","Acantilados","Plataformas de abrasión","Terrazas fluviales","Deltas","Paleolíneas de costa"]},"geometry":{"type":"Polygon","coordinates":[[[-75.5,-49.0],[-71.2,-49.0],[-71.2,-43.5],[-75.5,-43.5],[-75.5,-49.0]]]}},
    {"type":"Feature","properties":{"id":"cgt-19","numero":"XIX","nombre":"Procesos del Holoceno","tipo":"proceso","edad":"Holoceno","color":"#16a085","region":"chile","descripcion":"Dinámicas activas y morfologías que modelan el paisaje durante el Holoceno: suelos y remociones en masa.","unidades":["Suelos (Entisols, Inceptisols, Histosols, Mollisols, Andisols, Spodosols)","Desprendimientos","Deslizamientos","Flujos","Volcamientos","Extensiones laterales"]},"geometry":{"type":"Polygon","coordinates":[[[-75.5,-49.0],[-71.2,-49.0],[-71.2,-43.5],[-75.5,-43.5],[-75.5,-49.0]]]}},

    {"type":"Feature","properties":{"id":"cga-01","nombre":"Basamento metamórfico de la Península Antártica","tipo":"basamento","edad":"Paleozoico-Mesozoico","color":"#5b3a8a","region":"antartica","descripcion":"Complejos metamórficos pre-Andinos que constituyen el basamento del orógeno antártico. Equivalente a los terrenos del basamento patagónico.","unidades":["Trinity Peninsula Group","LeMay Group"]},"geometry":{"type":"Polygon","coordinates":[[[-65.0,-68.0],[-58.0,-68.0],[-58.0,-63.0],[-65.0,-63.0],[-65.0,-68.0]]]}},
    {"type":"Feature","properties":{"id":"cga-02","nombre":"Arco magmático Jurásico-Cretácico de la Península Antártica","tipo":"arco volcanico","edad":"Jurásico-Cretácico","color":"#c0392b","region":"antartica","descripcion":"Volcanismo y plutonismo de arco continental Mesozoico desarrollado en la Península Antártica. Análogo al arco mesozoico chileno-patagónico.","unidades":["Antarctic Peninsula Volcanic Group","Andean Intrusive Suite"]},"geometry":{"type":"Polygon","coordinates":[[[-66.0,-70.0],[-60.0,-70.0],[-60.0,-64.0],[-66.0,-64.0],[-66.0,-70.0]]]}},
    {"type":"Feature","properties":{"id":"cga-03","nombre":"Localidades fosilíferas de Isla Marambio (Seymour)","tipo":"fosilifero","edad":"Cretácico-Paleógeno","color":"#16a085","region":"antartica","descripcion":"Sucesión sedimentaria con uno de los registros fósiles más completos del límite K-Pg en el hemisferio sur.","unidades":["Formación López de Bertodano","Formación Sobral","Formación Cross Valley"]},"geometry":{"type":"Polygon","coordinates":[[[-57.0,-64.4],[-56.5,-64.4],[-56.5,-64.1],[-57.0,-64.1],[-57.0,-64.4]]]}},
    {"type":"Feature","properties":{"id":"cga-04","nombre":"Volcanismo Cenozoico de Isla Decepción y Shetland del Sur","tipo":"arco volcanico","edad":"Cenozoico","color":"#e74c3c","region":"antartica","descripcion":"Volcanismo activo asociado a la apertura del Estrecho de Bransfield. Isla Decepción es uno de los pocos volcanes activos antárticos.","unidades":["Volcán Isla Decepción","Pingüín Island Volcanic Group"]},"geometry":{"type":"Polygon","coordinates":[[[-62.0,-63.5],[-58.0,-63.5],[-58.0,-61.5],[-62.0,-61.5],[-62.0,-63.5]]]}}
  ]
}
